STARLINK-5399           
1 54788U 22175AG  22363.58334491 -.00282995  00000+0 -20632-2 0  9993
2 54788  53.2173 247.8699 0001348  78.8075 177.9622 15.73393718  1306
STARLINK-5446           
1 54789U 22175AH  22363.58334491 -.00779465  20134-3 -18034-2 0  9994
2 54789  53.2179 247.2725 0038746  90.4362 101.7042 15.95024918  1306
STARLINK-5445           
1 54790U 22175AJ  22363.58334491 -.00312680  00000+0 -22855-2 0  9990
2 54790  53.2173 247.8675 0001726  41.4309 216.5153 15.73417845  1306
STARLINK-5425           
1 54791U 22175AK  22363.58334491 -.00234907  00000+0 -17048-2 0  9994
2 54791  53.2173 247.8730 0001298  49.8321 205.1701 15.73358224  1307
STARLINK-5431           
1 54792U 22175AL  22363.58334491 -.00351844  00000+0 -25808-2 0  9998
2 54792  53.2173 247.8639 0001247  48.1630 211.5495 15.73450568  1300
STARLINK-5433           
1 54793U 22175AM  22363.58334491 -.00901093  00000+0 -64616-2 0  9996
2 54793  53.2173 247.8642 0001520  36.9449 229.2523 15.75479410  1309
STARLINK-5392           
1 54794U 22175AN  22363.58334491 -.00363981  00000+0 -26728-2 0  9997
2 54794  53.2173 247.8628 0001008  73.5841 186.7186 15.73460253  1303
STARLINK-5436           
1 54795U 22175AP  22363.58334491 -.00300491  00000+0 -21942-2 0  9998
2 54795  53.2173 247.8682 0001452  66.5166 190.8407 15.73407398  1302
STARLINK-5415           
1 54796U 22175AQ  22363.58334491 -.00394248  00000+0 -29019-2 0  9995
2 54796  53.2173 247.8604 0001829  32.9527 228.5234 15.73486542  1308
STARLINK-5435           
1 54797U 22175AR  22363.58334491 -.00340481  00000+0 -24951-2 0  9996
2 54797  53.2173 247.8647 0001186  63.7973 195.3266 15.73440350  1302
STARLINK-5420           
1 54798U 22175AS  22363.66667824 -.00212928  00000+0 -15419-2 0  9998
2 54798  53.2175 247.4468 0001251  69.3631 305.0343 15.73343037  1601
STARLINK-5421           
1 54799U 22175AT  22363.58334491 -.00693956  00000+0 -47496-2 0  9995
2 54799  53.2173 247.8610 0001101  54.8259 210.6244 15.75974254  1303
STARLINK-5428           
1 54800U 22175AU  22363.66667824 -.00263033  00000+0 -19141-2 0  9991
2 54800  53.2175 247.4432 0001243  85.2735 290.8916 15.73379012  1608
STARLINK-5429           
1 54801U 22175AV  22363.58334491 -.00418365  00000+0 -30858-2 0  9992
2 54801  53.2173 247.8575 0001453  62.8459 199.8068 15.73508247  1303
STARLINK-5426           
1 54802U 22175AW  22363.58334491  .00231128  31594-4  59370-3 0  9999
2 54802  53.2158 247.3769 0033397  83.5912  54.8349 15.93801384  1305
STARLINK-5430           
1 54803U 22175AX  22363.58334491 -.00437090  00000+0 -32289-2 0  9990
2 54803  53.2173 247.8564 0001382  79.1652 184.0714 15.73525164  1301
STARLINK-5422           
1 54804U 22175AY  22363.58334491 -.00494490  00000+0 -36640-2 0  9993
2 54804  53.2173 247.8523 0005335 274.7471 350.8328 15.73579265  1306
STARLINK-5417           
1 54805U 22175AZ  22363.66667824 -.00293301  00000+0 -21403-2 0  9991
2 54805  53.2175 247.4404 0001244  46.6514 330.6911 15.73402728  1608
STARLINK-5412           
1 54806U 22175BA  22363.58334491 -.00520326  00000+0 -38686-2 0  9995
2 54806  53.2173 247.8502 0001481  35.4152 231.3345 15.73606681  1306
STARLINK-5410           
1 54807U 22175BB  22363.58334491 -.00497570  00000+0 -36921-2 0  9990
2 54807  53.2173 247.8506 0001862  23.9762 242.1910 15.73586985  1305
STARLINK-5413           
1 54808U 22175BC  22363.58334491 -.00538490  00000+0 -40085-2 0  9994
2 54808  53.2173 247.8477 0001446  58.1745 209.7466 15.73629130  1307
STARLINK-5414           
1 54809U 22175BD  22363.58334491 -.00527298  00000+0 -39217-2 0  9994
2 54809  53.2173 247.8482 0001547  46.5969 220.7367 15.73618100  1303
STARLINK-5408           
1 54810U 22175BE  22363.58334491 -.00511490  00000+0 -37973-2 0  9990
2 54810  53.2172 247.8471 0001449  75.9983 192.5183 15.73616573  1309
STARLINK-5424           
1 54811U 22175BF  22363.66667824 -.00387685  00000+0 -28522-2 0  9996
2 54811  53.2175 247.4321 0001344  66.4049 315.0564 15.73482102  1602
FALCON 9 DEB            
1 54812U 22175BG  22363.05396633  .01107380  11658-4  74820-3 0  9997
2 54812  53.2170 249.2954 0049264  88.0541 272.6137 16.13134042  3686
FALCON 9 DEB            
1 54813U 22175BH  22363.11193243  .01160406  11673-4  76887-3 0  9997
2 54813  53.2113 248.9359 0044793  89.9005 270.7166 16.13880016  3697
FALCON 9 DEB            
1 54814U 22175BJ  22363.10468261  .01122612  11703-4  69677-3 0  9992
2 54814  53.2138 248.8807 0043336  82.8020 277.7942 16.14889240  3691
FALCON 9 DEB            
1 54815U 22175BK  22363.41117393  .01260901  11751-4  68445-3 0  9993
2 54815  53.2151 247.2349 0041324  85.9055 274.6705 16.16807864  3741
XW-4 (CAS-10)           
1 54816U 21035C   22363.63331686  .00093945  00000+0  10200-2 0  9991
2 54816  41.4774 109.0086 0007780 268.4333  91.5612 15.62395239  1682
2022-163D               
1 54817U 22163D   22363.58666585  .00000045  00000+0  86447-4 0  9995
2 54817  67.1409 303.2227 0012151 320.9736  39.0470 13.96890105   682
2022-176A               
1 54818U 22176A   22363.40012413  .00159341  73951-5  82831-3 0  9993
2 54818  97.2755 139.4584 0326926 183.4039 258.7099 15.32268874   324
2022-176B               
1 54819U 22176B   22363.59122055  .00248231  20050-4  79200-3 0  9992
2 54819  97.2284 139.7309 0178005 168.4702 192.0678 15.70119218   369
2022-178A               
1 54878U 22178A   22363.79780338 -.00001214 -29631-6  00000+0 0  9999
2 54878  51.0014 118.8577 7524991 225.2165  62.4334  2.01048366    48
2022-178B               
1 54879U 22178B   22363.83408674  .00012436  00000+0  38929-2 0  9997
2 54879  51.3088 118.6095 7519989 225.9302  84.4138  1.99144449    37
